LEMUR-1                 
1 40044U 14033AL  26197.86830318  .00000748  00000+0  91711-4 0  9996
2 40044  97.7911 347.0211 0047590 342.3747  17.5814 14.85339656649871
LEMUR-2-GREENBERG       
1 42837U 17042N   26197.94088303  .00009697  00000+0  31424-3 0  9995
2 42837  97.3832  18.4492 0007264 252.1925 107.8525 15.32186958492945
LEMUR-2-ANDIS           
1 42838U 17042P   26197.44337105  .00012949  00000+0  37176-3 0  9992
2 42838  97.3681  18.2427 0007241 252.8330 107.2121 15.35956970492944
LEMUR-2-MONSON          
1 42839U 17042Q   26197.49124751  .00007839  00000+0  28284-3 0  9991
2 42839  97.4090  17.9272 0005395 239.7069 120.3638 15.28773757492643
LEMUR-2-FURIAUS         
1 42840U 17042R   26197.49750942  .00010084  00000+0  33733-3 0  9991
2 42840  97.3778  15.8960 0005913 324.3797  35.7049 15.31157870492699
LEMUR-2-PETERG          
1 42841U 17042S   26197.96646286  .00011210  00000+0  33162-3 0  9997
2 42841  97.3994  23.0718 0003427 212.2354 147.8680 15.35069947493007
LEMUR-2-DEMBITZ         
1 42842U 17042T   26197.45191892  .00008589  00000+0  28805-3 0  9993
2 42842  97.3828  18.8957 0005066 269.0377  91.0284 15.31130878492824
LEMUR-2-ZACHARY         
1 42845U 17042W   26198.17885755  .00029360  00000+0  47405-3 0  9991
2 42845  97.3571  30.5085 0002654 235.4753 124.6249 15.52841116493855
LEMUR-2-AMANDA-SVANTE   
1 48269U 21034B   26197.75371137  .00019624  00000+0  56092-3 0  9994
2 48269  97.5750 276.8554 0004656 139.3805 220.7786 15.36021211285594
LEMUR-2-SPECIAL-K       
1 48273U 21034F   26198.04885778  .00187699  00000+0  12202-2 0  9995
2 48273  97.5641 287.3062 0006293 212.8782 147.2092 15.75386170286370
LEMUR-2-EMBRIONOVIS     
1 56970U 23084AQ  26198.19656632  .00007666  00000+0  20547-3 0  9993
2 56970  97.6328 343.5695 0008515 198.7733 161.3198 15.38262005172298
LEMUR-2-DEVERILL-M-T    
1 57391U 23100F   26198.11374444  .00015224  00000+0  36985-3 0  9992
2 57391  99.4448 245.5500 0004727 288.8996  71.1731 15.41151764165856
LEMUR-2-BASS            
1 58259U 23174D   26198.03039832  .00010598  00000+0  23396-3 0  9998
2 58259  97.3845 283.1792 0007549  72.6358 287.5715 15.44032730149968
LEMUR-2-JK0903EM1407    
1 58336U 23174CJ  26197.79411387  .00017604  00000+0  28238-3 0  9990
2 58336  97.3923 289.1304 0003479  27.1565 332.9869 15.53123709150323
LEMUR-2-MJR092620       
1 58340U 23174CN  26198.20255620  .00010751  00000+0  22284-3 0  9999
2 58340  97.3975 288.8070 0005151  23.4875 336.6608 15.45908152150284
LEMUR-2-NIMBUS2000      
1 58899U 24022A   26197.56710172  .00013172  00000+0  31938-3 0  9993
2 58899  97.4075  47.9572 0008618  24.2441 335.9209 15.41153193136797
LEMUR-2-VALHALLA        
1 58900U 24022B   26197.83234560  .00009575  00000+0  23769-3 0  9993
2 58900  97.4076  48.1944 0009043  18.4869 341.6704 15.40519232136837
LEMUR-2-CAEL            
1 58903U 24022E   26198.01119034  .00010116  00000+0  24002-3 0  9999
2 58903  97.4055  49.3652 0006912   3.1260 357.0029 15.41893373136938
LEMUR-2-JOHNNYTRUONG    
1 59146U 24043BA  26197.88287956  .00026780  00000+0  30014-3 0  9999
2 59146  97.5398 351.4789 0004008  90.0764 270.0953 15.62655044132676
LEMUR-2-TOMATOKECHUP    
1 60471U 24149D   26197.48204929  .00005784  00000+0  16419-3 0  9998
2 60471  97.3796 279.6140 0003348 120.3105 239.8471 15.36597838106668
LEMUR-2-STELLA          
1 60533U 24149BT  26198.19094302  .00005866  00000+0  34171-3 0  9994
2 60533  97.6732 280.7889 0001225 121.9085 238.2264 15.12393884105031
LEMUR-2-MARHISYAM       
1 60536U 24149BW  26198.18263752  .00005814  00000+0  34433-3 0  9997
2 60536  97.6875 281.2593 0002291  66.0951 294.0519 15.11799755105012
LEMUR-2-AHMED-ASRAR     
1 60576U 24149DN  26198.18713750  .00006416  00000+0  36384-3 0  9995
2 60576  97.7002 283.4749 0001381 197.8671 162.2511 15.13331428105106
LEMUR-2-LLOYD           
1 60577U 24149DP  26197.73928473  .00004792  00000+0  30078-3 0  9995
2 60577  97.6742 278.8938 0004663  68.7194 291.4532 15.09766833104853
LEMUR-2-SQUIRRELCOMM    
1 60578U 24149DQ  26198.19490731  .00002407  00000+0  16298-3 0  9997
2 60578  97.6704 279.0168 0004039 318.1739  41.9179 15.07456450104926
LEMUR-2-SIERRINI        
1 60579U 24149DR  26197.94707483  .00005753  00000+0  34313-3 0  9990
2 60579  97.6838 280.6818 0006424  86.4880 273.7085 15.11533947104953
LEMUR-2-WILSON          
1 62694U 25009CP  26197.74097494  .00000793  00000+0  77175-4 0  9991
2 62694  97.7019 275.6876 0001904 316.2557  43.8513 14.95279131 81775
LEMUR-2-STAR-FOX        
1 62696U 25009CR  26198.19089499  .00003558  00000+0  26999-3 0  9998
2 62696  97.6903 279.5841 0001987  34.7534 325.3820 15.02855199 82066
LEMUR-2-ARIANNA         
1 62699U 25009CU  26198.18935917  .00003729  00000+0  28273-3 0  9992
2 62699  97.6845 279.3334 0002339  42.8979 317.2428 15.02857687 82062
LEMUR-2-ALISIA          
1 62706U 25009DB  26198.02815191  .00004168  00000+0  31268-3 0  9991
2 62706  97.6968 280.0020 0004539 123.9243 236.2414 15.03191133104649
